<script type="text/x-mathjax-config">MathJax.Hub.Config({tex2jax:{inlineMath:[['\$','\$'],['\\(','\\)']],processEscapes:true},CommonHTML: {matchFontHeight:false}});</script>
<script type="text/javascript" async src="https://cdnjs.cloudflare.com/ajax/libs/mathjax/2.7.1/MathJax.js?config=TeX-MML-AM_CHTML"></script>

# Horizons On-line Ephemeris System v4.97 の使い方メモ

HP：https://ssd.jpl.nasa.gov/horizons/

telnet: 

```
$ telnet horizons.jpl.nasa.gov 6775
```

telnetでの使い方の例．太陽を原点としたときの地球の位置と速度．

```
Horizons> 399
*******************************************************************************
 Revised: April 12, 2021                 Earth                              399
 
 GEOPHYSICAL PROPERTIES (revised May 9, 2022):
  Vol. Mean Radius (km)    = 6371.01+-0.02   Mass x10^24 (kg)= 5.97219+-0.0006
  Equ. radius, km          = 6378.137        Mass layers:
  Polar axis, km           = 6356.752          Atmos         = 5.1   x 10^18 kg
  Flattening               = 1/298.257223563   oceans        = 1.4   x 10^21 kg
  Density, g/cm^3          = 5.51              crust         = 2.6   x 10^22 kg
  J2 (IERS 2010)           = 0.00108262545     mantle        = 4.043 x 10^24 kg
  g_p, m/s^2  (polar)      = 9.8321863685      outer core    = 1.835 x 10^24 kg
  g_e, m/s^2  (equatorial) = 9.7803267715      inner core    = 9.675 x 10^22 kg
  g_o, m/s^2               = 9.82022         Fluid core rad  = 3480 km
  GM, km^3/s^2             = 398600.435436   Inner core rad  = 1215 km
  GM 1-sigma, km^3/s^2     =      0.0014     Escape velocity = 11.186 km/s
  Rot. Rate (rad/s)        = 0.00007292115   Surface area:
  Mean sidereal day, hr    = 23.9344695944     land          = 1.48 x 10^8 km
  Mean solar day 2000.0, s = 86400.002         sea           = 3.62 x 10^8 km
  Mean solar day 1820.0, s = 86400.0         Love no., k2    = 0.299
  Moment of inertia        = 0.3308          Atm. pressure   = 1.0 bar
  Mean surface temp (Ts), K= 287.6           Volume, km^3    = 1.08321 x 10^12
  Mean effect. temp (Te), K= 255             Magnetic moment = 0.61 gauss Rp^3
  Geometric albedo         = 0.367           Vis. mag. V(1,0)= -3.86
  Solar Constant (W/m^2)   = 1367.6 (mean), 1414 (perihelion), 1322 (aphelion)
 HELIOCENTRIC ORBIT CHARACTERISTICS:
  Obliquity to orbit, deg  = 23.4392911  Sidereal orb period  = 1.0000174 y
  Orbital speed, km/s      = 29.79       Sidereal orb period  = 365.25636 d
  Mean daily motion, deg/d = 0.9856474   Hill's sphere radius = 234.9       
*******************************************************************************
 Select ... [E]phemeris, [F]tp, [M]ail, [R]edisplay, ?, <cr>: E
 
 Observe, Elements, Vectors  [o,e,v,?] : v
 Coordinate center [ <id>,coord,geo  ] : 010

  code_subc   east long    cyl_rho           z  epoch  Site name
 ---------- ----------- ---------- ----------- ------  ----------------
   010         6.921200 4615.57302  4389.02201    -    Caussols
 
 Confirm selected station    [ y/n ] --> y
 Reference plane [eclip, frame, body ] : eclip
 Starting TDB [>= 9999BC-Mar-21 00:01] : 2023-08-01
 Ending   TDB [<=   9999-Dec-30 12:00] : 2023-08-02
 Output interval [ex: 10m, 1h, 1d, ? ] : 1h
 
 Current output table defaults --
   Ref. Frame     = ICRF
   Corrections    = NONE
   Units          = KM-D
   CSV format     = NO
   Output delta-T = NO
   Table type     = 3 (position, velocity, LT, range, range-rate)
   Vector label   = YES
 
 Accept default output [ cr=(y), n, ?] : y
 Working ... -  
*******************************************************************************
Ephemeris / PORT_LOGIN Thu Aug 31 00:52:49 2023 Pasadena, USA    / Horizons
*******************************************************************************
Target body name: Earth (399)                     {source: DE441}
Center body name: Earth (399)                     {source: DE441}
Center-site name: Caussols
*******************************************************************************
Start time      : A.D. 2023-Aug-01 00:00:00.0000 TDB
Stop  time      : A.D. 2023-Aug-02 00:00:00.0000 TDB
Step-size       : 60 minutes
*******************************************************************************
Center geodetic : 6.9212, 43.7509454, 1.26963     {E-lon(deg),Lat(deg),Alt(km)}
Center cylindric: 6.9212, 4615.57302, 4389.02201  {E-lon(deg),Dxy(km),Dz(km)}
Center pole/equ : ITRF93                          {East-longitude positive}
Center radii    : 6378.137, 6378.137, 6356.752 km {Equator_a, b, pole_c}
Output units    : KM-D
Calendar mode   : Mixed Julian/Gregorian
Output type     : GEOMETRIC cartesian states
Output format   : 3 (position, velocity, LT, range, range-rate)
EOP file        : eop.230829.p231122
EOP coverage    : DATA-BASED 1962-JAN-20 TO 2023-AUG-29. PREDICTS-> 2023-NOV-21
Reference frame : Ecliptic of J2000.0
*******************************************************************************
JDTDB
   X     Y     Z
   VX    VY    VZ
   LT    RG    RR
*******************************************************************************
$$SOE
2460157.500000000 = A.D. 2023-Aug-01 00:00:00.0000 TDB 
 X =-3.312118678837459E+03 Y = 1.215682247742047E+03 Z =-5.302736563967898E+03
 VX=-2.031752365276738E+04 VY=-1.906925672341998E+04 VZ= 8.318703407122974E+03
 LT= 2.458963902605743E-07 RG= 6.369225112760674E+03 RR= 4.679112742927971E-12
2460157.541666667 = A.D. 2023-Aug-01 01:00:00.0000 TDB 
 X =-4.035861745772828E+03 Y = 3.287582835807409E+02 Z =-4.916377375365500E+03
 VX=-1.422240797616601E+04 VY=-2.325832380798096E+04 VZ= 1.011991185196743E+04
 LT= 2.458963902605743E-07 RG= 6.369225112760674E+03 RR=-4.679112742927971E-12
2460157.583333333 = A.D. 2023-Aug-01 02:00:00.0000 TDB 
 X =-4.483753206627439E+03 Y =-7.003263056025150E+02 Z =-4.469063524359495E+03
 VX=-7.152774983251184E+03 VY=-2.585373383627517E+04 VZ= 1.122770517749975E+04
 LT= 2.458963902605743E-07 RG= 6.369225112760673E+03 RR=-2.339556371463986E-12
2460157.625000000 = A.D. 2023-Aug-01 03:00:00.0000 TDB 
 X =-4.625103605656903E+03 Y =-1.801058789731036E+03 Z =-3.991444902525062E+03
 VX= 4.069650238205375E+02 VY=-2.667764969652297E+04 VZ= 1.156617746296192E+04
 LT= 2.458963902605743E-07 RG= 6.369225112760672E+03 RR=-3.509334557195979E-12
2460157.666666667 = A.D. 2023-Aug-01 04:00:00.0000 TDB 
 X =-4.450227639473806E+03 Y =-2.898017135818212E+03 Z =-3.516247882955442E+03
 VX= 7.938819676218370E+03 VY=-2.567361681298564E+04 VZ= 1.111213657716195E+04
 LT= 2.458963902605743E-07 RG= 6.369225112760674E+03 RR= 3.509334557195978E-12
2460157.708333333 = A.D. 2023-Aug-01 05:00:00.0000 TDB 
 X =-3.971107792668641E+03 Y =-3.916037915519743E+03 Z =-3.076032912736697E+03
 VX= 1.492670730799782E+04 VY=-2.291043140397370E+04 VZ= 9.896693303621667E+03
 LT= 2.458963902605743E-07 RG= 6.369225112760675E+03 RR=-1.169778185731993E-12
2460157.750000000 = A.D. 2023-Aug-01 06:00:00.0000 TDB 
 X =-3.220573299557096E+03 Y =-4.785366492443723E+03 Z =-2.700963474798949E+03
 VX= 2.089181880020595E+04 VY=-1.857742657307342E+04 VZ= 8.003129636212487E+03
 LT= 2.458963902605743E-07 RG= 6.369225112760675E+03 RR=-1.169778185731993E-12
2460157.791666667 = A.D. 2023-Aug-01 07:00:00.0000 TDB 
 X =-2.250050689404949E+03 Y =-5.446436600243558E+03 Z =-2.416739289136692E+03
 VX= 2.542542551857935E+04 VY=-1.297149922959990E+04 VZ= 5.561192309010455E+03
 LT= 2.458963902605743E-07 RG= 6.369225112760674E+03 RR=-2.047111825030987E-12
2460157.833333333 = A.D. 2023-Aug-01 08:00:00.0000 TDB 
 X =-1.126040047525925E+03 Y =-5.853951814710283E+03 Z =-2.242835370560938E+03
 VX= 2.821688534413189E+04 VY=-6.476766752292086E+03 VZ= 2.738202567030003E+03
 LT= 2.458963902605744E-07 RG= 6.369225112760674E+03 RR=-2.778223191113483E-12
2460157.875000000 = A.D. 2023-Aug-01 09:00:00.0000 TDB 
 X = 7.444156175282041E+01 Y =-5.979989258260230E+03 Z =-2.191167602443336E+03
 VX= 2.907492782916796E+04 VY= 4.617526817937572E+02 VZ=-2.724086651245363E+02
 LT= 2.458963902605743E-07 RG= 6.369225112760673E+03 RR= 2.376111939768110E-13
2460157.916666667 = A.D. 2023-Aug-01 10:00:00.0000 TDB 
 X = 1.269137293577254E+03 Y =-5.815912871366917E+03 Z =-2.265276261240828E+03
 VX= 2.794076002227698E+04 VY= 7.368632679252039E+03 VZ=-3.264354646272670E+03
 LT= 2.458963902605743E-07 RG= 6.369225112760671E+03 RR= 1.462222732164991E-13
2460157.958333333 = A.D. 2023-Aug-01 11:00:00.0000 TDB 
 X = 2.376186751144889E+03 Y =-5.372965153960866E+03 Z =-2.460083436598648E+03
 VX= 2.489209495364713E+04 VY= 1.377061478470703E+04 VZ=-6.032627564157504E+03
 LT= 2.458963902605744E-07 RG= 6.369225112760675E+03 RR= 2.339556371463985E-12
2460158.000000000 = A.D. 2023-Aug-01 12:00:00.0000 TDB 
 X = 3.319735048701283E+03 Y =-4.681496830522368E+03 Z =-2.762240968716259E+03
 VX= 2.013782674771810E+04 VY= 1.922903608215883E+04 VZ=-8.387545647156281E+03
 LT= 2.458963902605743E-07 RG= 6.369225112760674E+03 RR=-7.603558207257953E-12
2460158.041666667 = A.D. 2023-Aug-01 13:00:00.0000 TDB 
 X = 4.035130378066941E+03 Y =-3.788887222510470E+03 Z =-3.151045062216574E+03
 VX= 1.400371722639360E+04 VY= 2.336988631638055E+04 VZ=-1.016775013907254E+04
 LT= 2.458963902605743E-07 RG= 6.369225112760673E+03 RR= 1.169778185731993E-12
2460158.083333333 = A.D. 2023-Aug-01 14:00:00.0000 TDB 
 X = 4.473353941945036E+03 Y =-2.756297823594650E+03 Z =-3.599854907458551E+03
 VX= 6.910074752502380E+03 VY= 2.590943502350719E+04 VZ=-1.125126158521011E+04
 LT= 2.458963902605743E-07 RG= 6.369225112760673E+03 RR= 3.509334557195979E-12
2460158.125000000 = A.D. 2023-Aug-01 15:00:00.0000 TDB 
 X = 4.604378715299435E+03 Y =-1.654481522252532E+03 Z =-4.077918105558729E+03
 VX=-6.570452440085345E+02 VY= 2.667367270183520E+04 VZ=-1.156383785344279E+04
 LT= 2.458963902605744E-07 RG= 6.369225112760675E+03 RR=-1.169778185731993E-12
2460158.166666667 = A.D. 2023-Aug-01 16:00:00.0000 TDB 
 X = 4.419226892934747E+03 Y =-5.589346238732214E+02 Z =-4.552477818948622E+03
 VX=-8.179144716658298E+03 VY= 2.561023391662440E+04 VZ=-1.108406119949173E+04
 LT= 2.458963902605743E-07 RG= 6.369225112760673E+03 RR=-1.169778185731993E-12
